CCSDS_OMM_VERS = 2.0
CREATION_DATE  = 
ORIGINATOR     = 

OBJECT_NAME    = ATLAS CENTAUR R/B
OBJECT_ID      = 1972-065B
CENTER_NAME    = EARTH
REF_FRAME      = TEME
TIME_SYSTEM    = UTC
MEAN_ELEMENT_THEORY = SGP/SGP4

EPOCH          = 2026-02-22T05:17:26.619072
MEAN_MOTION    = 14.77637646
ECCENTRICITY   = .0034377
INCLINATION    = 35.0023
RA_OF_ASC_NODE = 36.4036
ARG_OF_PERICENTER = 240.5238
MEAN_ANOMALY   = 119.2030

EPHEMERIS_TYPE = 0
CLASSIFICATION_TYPE = U
NORAD_CAT_ID   = 6155
ELEMENT_SET_NO = 999
REV_AT_EPOCH   = 83897
BSTAR          = .18538E-3
MEAN_MOTION_DOT = .1338E-4
MEAN_MOTION_DDOT = 0

CCSDS_OMM_VERS = 2.0
CREATION_DATE  = 
ORIGINATOR     = 

OBJECT_NAME    = SL-8 R/B
OBJECT_ID      = 1975-112B
CENTER_NAME    = EARTH
REF_FRAME      = TEME
TIME_SYSTEM    = UTC
MEAN_ELEMENT_THEORY = SGP/SGP4

EPOCH          = 2026-02-22T06:28:08.209344
MEAN_MOTION    = 14.38194312
ECCENTRICITY   = .001485
INCLINATION    = 74.0598
RA_OF_ASC_NODE = 47.2784
ARG_OF_PERICENTER = 146.5675
MEAN_ANOMALY   = 213.6420

EPHEMERIS_TYPE = 0
CLASSIFICATION_TYPE = U
NORAD_CAT_ID   = 8459
ELEMENT_SET_NO = 999
REV_AT_EPOCH   = 62965
BSTAR          = .57766E-4
MEAN_MOTION_DOT = .149E-5
MEAN_MOTION_DDOT = 0

CCSDS_OMM_VERS = 2.0
CREATION_DATE  = 
ORIGINATOR     = 

OBJECT_NAME    = SL-3 R/B
OBJECT_ID      = 1977-057B
CENTER_NAME    = EARTH
REF_FRAME      = TEME
TIME_SYSTEM    = UTC
MEAN_ELEMENT_THEORY = SGP/SGP4

EPOCH          = 2026-02-22T05:48:37.608480
MEAN_MOTION    = 15.45011431
ECCENTRICITY   = .0007006
INCLINATION    = 97.5756
RA_OF_ASC_NODE = 224.4905
ARG_OF_PERICENTER = 347.3141
MEAN_ANOMALY   = 12.7930

EPHEMERIS_TYPE = 0
CLASSIFICATION_TYPE = U
NORAD_CAT_ID   = 10114
ELEMENT_SET_NO = 999
REV_AT_EPOCH   = 66594
BSTAR          = .29837E-3
MEAN_MOTION_DOT = .13998E-3
MEAN_MOTION_DDOT = 0

CCSDS_OMM_VERS = 2.0
CREATION_DATE  = 
ORIGINATOR     = 

OBJECT_NAME    = SEASAT 1
OBJECT_ID      = 1978-064A
CENTER_NAME    = EARTH
REF_FRAME      = TEME
TIME_SYSTEM    = UTC
MEAN_ELEMENT_THEORY = SGP/SGP4

EPOCH          = 2026-02-22T01:41:43.244160
MEAN_MOTION    = 14.46146934
ECCENTRICITY   = .0001958
INCLINATION    = 108.0147
RA_OF_ASC_NODE = 92.7228
ARG_OF_PERICENTER = 289.0107
MEAN_ANOMALY   = 71.0827

EPHEMERIS_TYPE = 0
CLASSIFICATION_TYPE = U
NORAD_CAT_ID   = 10967
ELEMENT_SET_NO = 999
REV_AT_EPOCH   = 50425
BSTAR          = .86989E-4
MEAN_MOTION_DOT = .173E-5
MEAN_MOTION_DDOT = 0

CCSDS_OMM_VERS = 2.0
CREATION_DATE  = 
ORIGINATOR     = 

OBJECT_NAME    = SL-14 R/B
OBJECT_ID      = 1979-011B
CENTER_NAME    = EARTH
REF_FRAME      = TEME
TIME_SYSTEM    = UTC
MEAN_ELEMENT_THEORY = SGP/SGP4

EPOCH          = 2026-02-22T03:42:10.365696
MEAN_MOTION    = 14.91887984
ECCENTRICITY   = .00176
INCLINATION    = 82.5233
RA_OF_ASC_NODE = 111.3141
ARG_OF_PERICENTER = 108.2338
MEAN_ANOMALY   = 252.0799

EPHEMERIS_TYPE = 0
CLASSIFICATION_TYPE = U
NORAD_CAT_ID   = 11267
ELEMENT_SET_NO = 999
REV_AT_EPOCH   = 52646
BSTAR          = .42E-4
MEAN_MOTION_DOT = .451E-5
MEAN_MOTION_DDOT = 0

CCSDS_OMM_VERS = 2.0
CREATION_DATE  = 
ORIGINATOR     = 

OBJECT_NAME    = SL-8 R/B
OBJECT_ID      = 1979-089B
CENTER_NAME    = EARTH
REF_FRAME      = TEME
TIME_SYSTEM    = UTC
MEAN_ELEMENT_THEORY = SGP/SGP4

EPOCH          = 2026-02-22T06:40:45.824160
MEAN_MOTION    = 14.42340445
ECCENTRICITY   = .0016975
INCLINATION    = 74.0686
RA_OF_ASC_NODE = 119.5732
ARG_OF_PERICENTER = 293.7844
MEAN_ANOMALY   = 66.1532

EPHEMERIS_TYPE = 0
CLASSIFICATION_TYPE = U
NORAD_CAT_ID   = 11574
ELEMENT_SET_NO = 999
REV_AT_EPOCH   = 43388
BSTAR          = .74936E-4
MEAN_MOTION_DOT = .221E-5
MEAN_MOTION_DDOT = 0

CCSDS_OMM_VERS = 2.0
CREATION_DATE  = 
ORIGINATOR     = 

OBJECT_NAME    = SL-14 R/B
OBJECT_ID      = 1980-005B
CENTER_NAME    = EARTH
REF_FRAME      = TEME
TIME_SYSTEM    = UTC
MEAN_ELEMENT_THEORY = SGP/SGP4

EPOCH          = 2026-02-22T05:22:51.785472
MEAN_MOTION    = 14.90909576
ECCENTRICITY   = .0014799
INCLINATION    = 82.5170
RA_OF_ASC_NODE = 321.9033
ARG_OF_PERICENTER = 210.3412
MEAN_ANOMALY   = 149.6952

EPHEMERIS_TYPE = 0
CLASSIFICATION_TYPE = U
NORAD_CAT_ID   = 11672
ELEMENT_SET_NO = 999
REV_AT_EPOCH   = 47418
BSTAR          = .56667E-4
MEAN_MOTION_DOT = .585E-5
MEAN_MOTION_DDOT = 0

CCSDS_OMM_VERS = 2.0
CREATION_DATE  = 
ORIGINATOR     = 

OBJECT_NAME    = SL-8 R/B
OBJECT_ID      = 1981-003B
CENTER_NAME    = EARTH
REF_FRAME      = TEME
TIME_SYSTEM    = UTC
MEAN_ELEMENT_THEORY = SGP/SGP4

EPOCH          = 2026-02-22T02:28:08.735232
MEAN_MOTION    = 15.10351930
ECCENTRICITY   = .0262724
INCLINATION    = 82.9389
RA_OF_ASC_NODE = 304.4305
ARG_OF_PERICENTER = 232.8495
MEAN_ANOMALY   = 124.8485

EPHEMERIS_TYPE = 0
CLASSIFICATION_TYPE = U
NORAD_CAT_ID   = 12139
ELEMENT_SET_NO = 999
REV_AT_EPOCH   = 31232
BSTAR          = .36461E-3
MEAN_MOTION_DOT = .13939E-3
MEAN_MOTION_DDOT = 0

CCSDS_OMM_VERS = 2.0
CREATION_DATE  = 
ORIGINATOR     = 

OBJECT_NAME    = SL-3 R/B
OBJECT_ID      = 1981-046B
CENTER_NAME    = EARTH
REF_FRAME      = TEME
TIME_SYSTEM    = UTC
MEAN_ELEMENT_THEORY = SGP/SGP4

EPOCH          = 2026-02-22T04:59:42.248832
MEAN_MOTION    = 15.41544424
ECCENTRICITY   = .0020673
INCLINATION    = 81.2325
RA_OF_ASC_NODE = 308.3265
ARG_OF_PERICENTER = 73.7262
MEAN_ANOMALY   = 286.6252

EPHEMERIS_TYPE = 0
CLASSIFICATION_TYPE = U
NORAD_CAT_ID   = 12465
ELEMENT_SET_NO = 999
REV_AT_EPOCH   = 43604
BSTAR          = .31563E-3
MEAN_MOTION_DOT = .13387E-3
MEAN_MOTION_DDOT = 0

CCSDS_OMM_VERS = 2.0
CREATION_DATE  = 
ORIGINATOR     = 

OBJECT_NAME    = SL-3 R/B
OBJECT_ID      = 1981-103B
CENTER_NAME    = EARTH
REF_FRAME      = TEME
TIME_SYSTEM    = UTC
MEAN_ELEMENT_THEORY = SGP/SGP4

EPOCH          = 2026-02-22T05:59:06.492480
MEAN_MOTION    = 15.21168357
ECCENTRICITY   = .0012967
INCLINATION    = 81.1564
RA_OF_ASC_NODE = 231.5438
ARG_OF_PERICENTER = 341.7273
MEAN_ANOMALY   = 18.3490

EPHEMERIS_TYPE = 0
CLASSIFICATION_TYPE = U
NORAD_CAT_ID   = 12904
ELEMENT_SET_NO = 999
REV_AT_EPOCH   = 97088
BSTAR          = .23709E-3
MEAN_MOTION_DOT = .5318E-4
MEAN_MOTION_DDOT = 0

CCSDS_OMM_VERS = 2.0
CREATION_DATE  = 
ORIGINATOR     = 

OBJECT_NAME    = SL-3 R/B
OBJECT_ID      = 1982-013B
CENTER_NAME    = EARTH
REF_FRAME      = TEME
TIME_SYSTEM    = UTC
MEAN_ELEMENT_THEORY = SGP/SGP4

EPOCH          = 2026-02-22T06:20:12.452064
MEAN_MOTION    = 15.21833188
ECCENTRICITY   = .0021916
INCLINATION    = 81.1763
RA_OF_ASC_NODE = 178.8437
ARG_OF_PERICENTER = 230.3761
MEAN_ANOMALY   = 129.5537

EPHEMERIS_TYPE = 0
CLASSIFICATION_TYPE = U
NORAD_CAT_ID   = 13068
ELEMENT_SET_NO = 999
REV_AT_EPOCH   = 40200
BSTAR          = .21974E-3
MEAN_MOTION_DOT = .5049E-4
MEAN_MOTION_DDOT = 0

CCSDS_OMM_VERS = 2.0
CREATION_DATE  = 
ORIGINATOR     = 

OBJECT_NAME    = SL-3 R/B
OBJECT_ID      = 1982-039B
CENTER_NAME    = EARTH
REF_FRAME      = TEME
TIME_SYSTEM    = UTC
MEAN_ELEMENT_THEORY = SGP/SGP4

EPOCH          = 2026-02-22T05:12:53.690976
MEAN_MOTION    = 15.09983344
ECCENTRICITY   = .0030019
INCLINATION    = 81.1590
RA_OF_ASC_NODE = 233.7983
ARG_OF_PERICENTER = 14.9661
MEAN_ANOMALY   = 345.2445

EPHEMERIS_TYPE = 0
CLASSIFICATION_TYPE = U
NORAD_CAT_ID   = 13154
ELEMENT_SET_NO = 999
REV_AT_EPOCH   = 37930
BSTAR          = .15438E-3
MEAN_MOTION_DOT = .2556E-4
MEAN_MOTION_DDOT = 0

