ATLAS CENTAUR R/B       
1 06155U 72065B   26053.22044698  .00001338  00000+0  18538-3 0  9990
2 06155  35.0023  36.4036 0034377 240.5238 119.2030 14.77637646838974
SL-8 R/B                
1 08459U 75112B   26053.26953946  .00000149  00000+0  57766-4 0  9990
2 08459  74.0598  47.2784 0014850 146.5675 213.6420 14.38194312629657
SL-3 R/B                
1 10114U 77057B   26053.24210195  .00013998  00000+0  29837-3 0  9994
2 10114  97.5756 224.4905 0007006 347.3141  12.7930 15.45011431665947
SEASAT 1                
1 10967U 78064A   26053.07063940  .00000173  00000+0  86989-4 0  9997
2 10967 108.0147  92.7228 0001958 289.0107  71.0827 14.46146934504259
SL-14 R/B               
1 11267U 79011B   26053.15428664  .00000451  00000+0  42000-4 0  9996
2 11267  82.5233 111.3141 0017600 108.2338 252.0799 14.91887984526469
SL-8 R/B                
1 11574U 79089B   26053.27830815  .00000221  00000+0  74936-4 0  9998
2 11574  74.0686 119.5732 0016975 293.7844  66.1532 14.42340445433884
SL-14 R/B               
1 11672U 80005B   26053.22421048  .00000585  00000+0  56667-4 0  9990
2 11672  82.5170 321.9033 0014799 210.3412 149.6952 14.90909576474186
SL-8 R/B                
1 12139U 81003B   26053.10287888  .00013939  00000+0  36461-3 0  9993
2 12139  82.9389 304.4305 0262724 232.8495 124.8485 15.10351930312323
SL-3 R/B                
1 12465U 81046B   26053.20812788  .00013387  00000+0  31563-3 0  9991
2 12465  81.2325 308.3265 0020673  73.7262 286.6252 15.41544424436045
SL-3 R/B                
1 12904U 81103B   26053.24938070  .00005318  00000+0  23709-3 0  9998
2 12904  81.1564 231.5438 0012967 341.7273  18.3490 15.21168357970887
SL-3 R/B                
1 13068U 82013B   26053.26403301  .00005049  00000+0  21974-3 0  9990
2 13068  81.1763 178.8437 0021916 230.3761 129.5537 15.21833188402003
SL-3 R/B                
1 13154U 82039B   26053.21728809  .00002556  00000+0  15438-3 0  9990
2 13154  81.1590 233.7983 0030019  14.9661 345.2445 15.09983344379300
